$$SOE
2460728.500000000, A.D. 2025-Feb-22 00:00:00.0000, 2.731452668359576E+08, 9.049565999272121E+06, -1.289437866258645E+06,
2460735.500000000, A.D. 2025-Mar-01 00:00:00.0000, 2.700391336676180E+08, 1.980130942324536E+07, -1.317380969421094E+06,
2460742.500000000, A.D. 2025-Mar-08 00:00:00.0000, 2.662726174661617E+08, 3.050448599732241E+07, -1.342102635375831E+06,
2460749.500000000, A.D. 2025-Mar-15 00:00:00.0000, 2.618346880327897E+08, 4.113058686891007E+07, -1.363440597916912E+06,
2460756.500000000, A.D. 2025-Mar-22 00:00:00.0000, 2.567141104089350E+08, 5.164927940550880E+07, -1.381224238117576E+06,
2460763.500000000, A.D. 2025-Mar-29 00:00:00.0000, 2.508995061021101E+08, 6.202814554723910E+07, -1.395273913259476E+06,
2460770.500000000, A.D. 2025-Apr-05 00:00:00.0000, 2.443794400891827E+08, 7.223238948936071E+07, -1.405400355668969E+06,
2460777.500000000, A.D. 2025-Apr-12 00:00:00.0000, 2.371425382793103E+08, 8.222451036478733E+07, -1.411403969124194E+06,
2460784.500000000, A.D. 2025-Apr-19 00:00:00.0000, 2.291776437536153E+08, 9.196393424552526E+07, -1.413074097894393E+06,
2460791.500000000, A.D. 2025-Apr-26 00:00:00.0000, 2.204740229868265E+08, 1.014066002102379E+08, -1.410188340507656E+06,
2460798.500000000, A.D. 2025-May-03 00:00:00.0000, 2.110216362172472E+08, 1.105044954234980E+08, -1.402511961938031E+06,
2460805.500000000, A.D. 2025-May-10 00:00:00.0000, 2.008114900423388E+08, 1.192051345393764E+08, -1.389797470700204E+06,
2460812.500000000, A.D. 2025-May-17 00:00:00.0000, 1.898360954216315E+08, 1.274509797473084E+08, -1.371784459427617E+06,
2460819.500000000, A.D. 2025-May-24 00:00:00.0000, 1.780900608603480E+08, 1.351787999240831E+08, -1.348199858767055E+06,
2460826.500000000, A.D. 2025-May-31 00:00:00.0000, 1.655708588779521E+08, 1.423189716247105E+08, -1.318758800201274E+06,
2460833.500000000, A.D. 2025-Jun-07 00:00:00.0000, 1.522798129583038E+08, 1.487947321192881E+08, -1.283166210904121E+06,
2460840.500000000, A.D. 2025-Jun-14 00:00:00.0000, 1.382233619884284E+08, 1.545214035741783E+08, -1.241119326919816E+06,
2460847.500000000, A.D. 2025-Jun-21 00:00:00.0000, 1.234146763220885E+08, 1.594056219332235E+08, -1.192311975640848E+06,
2460854.500000000, A.D. 2025-Jun-28 00:00:00.0000, 1.078757156753289E+08, 1.633446351309480E+08, -1.136441421408005E+06,
2460861.500000000, A.D. 2025-Jul-05 00:00:00.0000, 9.163982667768468E+07, 1.662257747235925E+08, -1.073218317590632E+06,
2460868.500000000, A.D. 2025-Jul-12 00:00:00.0000, 7.475498387526751E+07, 1.679262589930977E+08, -1.002380825871967E+06,
2460875.500000000, A.D. 2025-Jul-19 00:00:00.0000, 5.728776927463950E+07, 1.683135656542990E+08, -9.237143388932943E+05,
2460882.500000000, A.D. 2025-Jul-26 00:00:00.0000, 3.932814416226943E+07, 1.672467191785358E+08, -8.370784297617301E+05,
2460889.500000000, A.D. 2025-Aug-02 00:00:00.0000, 2.099496964094546E+07, 1.645789685149622E+08, -7.424426989556551E+05,
2460896.500000000, A.D. 2025-Aug-09 00:00:00.0000, 2.442044723236542E+06, 1.601624696555238E+08, -6.399328709506691E+05,
2460903.500000000, A.D. 2025-Aug-16 00:00:00.0000, -1.613588776240134E+07, 1.538556899333594E+08, -5.298874401226565E+05,
2460910.500000000, A.D. 2025-Aug-23 00:00:00.0000, -3.449819634867171E+07, 1.455342272196522E+08, -4.129228826864362E+05,
2460917.500000000, A.D. 2025-Aug-30 00:00:00.0000, -5.235612408460390E+07, 1.351054394507023E+08, -2.900013860571682E+05,
2460924.500000000, A.D. 2025-Sep-06 00:00:00.0000, -6.937552132578778E+07, 1.225265203959378E+08, -1.624890746423006E+05,
2460931.500000000, A.D. 2025-Sep-13 00:00:00.0000, -8.518707636511914E+07, 1.078243045298856E+08, -3.218649522043020E+04,
2460938.500000000, A.D. 2025-Sep-20 00:00:00.0000, -9.940595147499241E+07, 9.111328102051243E+07, 9.869079170347005E+04,
2460945.500000000, A.D. 2025-Sep-27 00:00:00.0000, -1.116607411313521E+08, 7.260668997958793E+07, 2.276014670160264E+05,
2460952.500000000, A.D. 2025-Oct-04 00:00:00.0000, -1.216283720127136E+08, 5.261531433296774E+07, 3.518433274630010E+05,
2460959.500000000, A.D. 2025-Oct-11 00:00:00.0000, -1.290681190037266E+08, 3.153076186565951E+07, 4.687749765634406E+05,
2460966.500000000, A.D. 2025-Oct-18 00:00:00.0000, -1.338463720913763E+08, 9.794562485426603E+06, 5.760507248496856E+05,
2460973.500000000, A.D. 2025-Oct-25 00:00:00.0000, -1.359457229529054E+08, -1.214062638627092E+07, 6.718144890103335E+05,
2460980.500000000, A.D. 2025-Nov-01 00:00:00.0000, -1.354568523113222E+08, -3.384876225506738E+07, 7.548105985217579E+05,
2460987.500000000, A.D. 2025-Nov-08 00:00:00.0000, -1.325570296569378E+08, -5.495930078344212E+07, 8.243983215085156E+05,
2460994.500000000, A.D. 2025-Nov-15 00:00:00.0000, -1.274820883187789E+08, -7.517335375508051E+07, 8.804864103386924E+05,
2461001.500000000, A.D. 2025-Nov-22 00:00:00.0000, -1.204986181901821E+08, -9.426756938826294E+07, 9.234204618361592E+05,
2461008.500000000, A.D. 2025-Nov-29 00:00:00.0000, -1.118808709026614E+08, -1.120889410324334E+08, 9.538566487051472E+05,
2461015.500000000, A.D. 2025-Dec-06 00:00:00.0000, -1.018941786804688E+08, -1.285445036271396E+08, 9.726458988543525E+05,
2461022.500000000, A.D. 2025-Dec-13 00:00:00.0000, -9.078467601965797E+07, -1.435892548492795E+08, 9.807399947396740E+05,
2461029.500000000, A.D. 2025-Dec-20 00:00:00.0000, -7.877408767863417E+07, -1.572144951108236E+08, 9.791219326057211E+05,
2461036.500000000, A.D. 2025-Dec-27 00:00:00.0000, -6.605809754529854E+07, -1.694377161263092E+08, 9.687584961278066E+05,
2461043.500000000, A.D. 2026-Jan-03 00:00:00.0000, -5.280698114525960E+07, -1.802944190087188E+08, 9.505708062284216E+05,
2461050.500000000, A.D. 2026-Jan-10 00:00:00.0000, -3.916750161320872E+07, -1.898318087445003E+08, 9.254181225229055E+05,
2461057.500000000, A.D. 2026-Jan-17 00:00:00.0000, -2.526538662182588E+07, -1.981041107662609E+08, 8.940907533352524E+05,
2461064.500000000, A.D. 2026-Jan-24 00:00:00.0000, -1.120795936615275E+07, -2.051691964663548E+08, 8.573088479336649E+05,
2461071.500000000, A.D. 2026-Jan-31 00:00:00.0000, 2.913320853136095E+06, -2.110862187414660E+08, 8.157247493664771E+05,
2461078.500000000, A.D. 2026-Feb-07 00:00:00.0000, 1.702053283779123E+07, -2.159140029966270E+08, 7.699273215551078E+05,
2461085.500000000, A.D. 2026-Feb-14 00:00:00.0000, 3.104723306978965E+07, -2.197099902055784E+08, 7.204471935866922E+05,
2461092.500000000, A.D. 2026-Feb-21 00:00:00.0000, 4.493666866034379E+07, -2.225295753931466E+08, 6.677622817079127E+05,
2461099.500000000, A.D. 2026-Feb-28 00:00:00.0000, 5.864024748422171E+07, -2.244257238661346E+08, 6.123033925340027E+05,
2461106.500000000, A.D. 2026-Mar-07 00:00:00.0000, 7.211623779905440E+07, -2.254487817804363E+08, 5.544597180518955E+05,
2461113.500000000, A.D. 2026-Mar-14 00:00:00.0000, 8.532867099909404E+07, -2.256464217261721E+08, 4.945836677055508E+05,
2461120.500000000, A.D. 2026-Mar-21 00:00:00.0000, 9.824642051422840E+07, -2.250636764207226E+08, 4.329950702533275E+05,
2461127.500000000, A.D. 2026-Mar-28 00:00:00.0000, 1.108424283277589E+08, -2.237430283701197E+08, 3.699850140563697E+05,
2461134.500000000, A.D. 2026-Apr-04 00:00:00.0000, 1.230930550335830E+08, -2.217245346851200E+08, 3.058193249365389E+05,
2461141.500000000, A.D. 2026-Apr-11 00:00:00.0000, 1.349775334376614E+08, -2.190459723345486E+08, 2.407416612456441E+05,
2461148.500000000, A.D. 2026-Apr-18 00:00:00.0000, 1.464775086413187E+08, -2.157429935486239E+08, 1.749762501236796E+05,
2461155.500000000, A.D. 2026-Apr-25 00:00:00.0000, 1.575766501694839E+08, -2.118492844564481E+08, 1.087303015921712E+05,
2461162.500000000, A.D. 2026-May-02 00:00:00.0000, 1.682603240765284E+08, -2.073967224750039E+08, 4.219613219033182E+04,
2461169.500000000, A.D. 2026-May-09 00:00:00.0000, 1.785153151004902E+08, -2.024155296795366E+08, -2.444698486305773E+04,
2461176.500000000, A.D. 2026-May-16 00:00:00.0000, 1.883295909164444E+08, -1.969344203648009E+08, -9.103123368035257E+04,
2461183.500000000, A.D. 2026-May-23 00:00:00.0000, 1.976921016409165E+08, -1.909807409493670E+08, -1.573988246756941E+05,
2461190.500000000, A.D. 2026-May-30 00:00:00.0000, 2.065926067846147E+08, -1.845806016326603E+08, -2.234004762341976E+05,
2461197.500000000, A.D. 2026-Jun-06 00:00:00.0000, 2.150215245892218E+08, -1.777590031752775E+08, -2.888940265054777E+05,
2461204.500000000, A.D. 2026-Jun-13 00:00:00.0000, 2.229698034831279E+08, -1.705399589524563E+08, -3.537434767959118E+05,
2461211.500000000, A.D. 2026-Jun-20 00:00:00.0000, 2.304288118992618E+08, -1.629466098793240E+08, -4.178181644789800E+05,
2461218.500000000, A.D. 2026-Jun-27 00:00:00.0000, 2.373902420527432E+08, -1.550013331861431E+08, -4.809919223955646E+05,
2461225.500000000, A.D. 2026-Jul-04 00:00:00.0000, 2.438460254299341E+08, -1.467258465262460E+08, -5.431422751075029E+05,
2461232.500000000, A.D. 2026-Jul-11 00:00:00.0000, 2.497882583749268E+08, -1.381413083009718E+08, -6.041496947712228E+05,
2461239.500000000, A.D. 2026-Jul-18 00:00:00.0000, 2.552091363174479E+08, -1.292684149592997E+08, -6.638969129928201E+05,
2461246.500000000, A.D. 2026-Jul-25 00:00:00.0000, 2.601008953870476E+08, -1.201274960779546E+08, -7.222682816633657E+05,
2461253.500000000, A.D. 2026-Aug-01 00:00:00.0000, 2.644557604087582E+08, -1.107386081028487E+08, -7.791491833134741E+05,
2461260.500000000, A.D. 2026-Aug-08 00:00:00.0000, 2.682658986333023E+08, -1.011216276428225E+08, -8.344255074706972E+05,
2461267.500000000, A.D. 2026-Aug-15 00:00:00.0000, 2.715233789316632E+08, -9.129634474287689E+07, -8.879831884236783E+05,
2461274.500000000, A.D. 2026-Aug-22 00:00:00.0000, 2.742201351830117E+08, -8.128255583934902E+07, -9.397076273462698E+05,
2461281.500000000, A.D. 2026-Aug-29 00:00:00.0000, 2.763479312027691E+08, -7.110015876291156E+07, -9.894828944827728E+05,
2461288.500000000, A.D. 2026-Sep-05 00:00:00.0000, 2.778983290999292E+08, -6.076925371445011E+07, -1.037191137268692E+06,
2461295.500000000, A.D. 2026-Sep-12 00:00:00.0000, 2.788626634076821E+08, -5.031024884815131E+07, -1.082712211014818E+06,
$$EOE